{
  "type": "FeatureCollection",
  "features": [
    {
      "type": "Feature",
      "properties": {
        "norad_id": 37021,
        "name": "FENGYUN 1C DEB",
        "group": "fengyun-1c-debris",
        "lat": -28.14619150638238,
        "lon": 16.090476917205336,
        "alt_km": 820.1750293690884,
        "timestamp": "2025-12-21T03:56:51.123850+00:00",
        "meta_object_name": "FENGYUN 1C DEB",
        "meta_object_id": "1999-025EDD",
        "meta_epoch": "2025-12-18T21:19:54.256224",
        "meta_mean_motion": 14.32297815,
        "meta_eccentricity": 0.01759429,
        "meta_inclination": 98.385,
        "meta_ra_of_asc_node": 9.3631,
        "meta_arg_of_pericenter": 233.4704,
        "meta_mean_anomaly": 249.0172,
        "meta_ephemeris_type": 0,
        "meta_classification_type": "U",
        "meta_norad_cat_id": 37021,
        "meta_element_set_no": 999,
        "meta_rev_at_epoch": 70142,
        "meta_bstar": 0.0005092002,
        "meta_mean_motion_dot": 1.583e-05,
        "meta_mean_motion_ddot": 0,
        "tle_line1": "1 37021U 99025EDD 25352.88882241  .00001583  00000+0  50920-3 0  9991",
        "tle_line2": "2 37021  98.3850   9.3631 0175942 233.4704 249.0172 14.32297815701422"
      },
      "geometry": {
        "type": "Point",
        "coordinates": [
          16.090476917205336,
          -28.14619150638238
        ]
      }
    },
    {
      "type": "Feature",
      "properties": {
        "norad_id": 37028,
        "name": "FENGYUN 1C DEB",
        "group": "fengyun-1c-debris",
        "lat": 49.08486024592162,
        "lon": -107.53445319833338,
        "alt_km": 789.2993845208412,
        "timestamp": "2025-12-21T03:56:51.123859+00:00",
        "meta_object_name": "FENGYUN 1C DEB",
        "meta_object_id": "1999-025EDL",
        "meta_epoch": "2025-12-18T11:34:45.442560",
        "meta_mean_motion": 14.22776654,
        "meta_eccentricity": 0.00337702,
        "meta_inclination": 99.2466,
        "meta_ra_of_asc_node": 260.4859,
        "meta_arg_of_pericenter": 82.1635,
        "meta_mean_anomaly": 278.3373,
        "meta_ephemeris_type": 0,
        "meta_classification_type": "U",
        "meta_norad_cat_id": 37028,
        "meta_element_set_no": 999,
        "meta_rev_at_epoch": 60557,
        "meta_bstar": 0.0014134336,
        "meta_mean_motion_dot": 3.141e-05,
        "meta_mean_motion_ddot": 0,
        "tle_line1": "1 37028U 99025EDL 25352.48247040  .00003141  00000+0  14134-2 0  9994",
        "tle_line2": "2 37028  99.2466 260.4859 0033770  82.1635 278.3373 14.22776654605577"
      },
      "geometry": {
        "type": "Point",
        "coordinates": [
          -107.53445319833338,
          49.08486024592162
        ]
      }
    },
    {
      "type": "Feature",
      "properties": {
        "norad_id": 37036,
        "name": "FENGYUN 1C DEB",
        "group": "fengyun-1c-debris",
        "lat": -51.59238902575625,
        "lon": -1.2994909383582858,
        "alt_km": 877.8592354893854,
        "timestamp": "2025-12-21T03:56:51.123868+00:00",
        "meta_object_name": "FENGYUN 1C DEB",
        "meta_object_id": "1999-025EDU",
        "meta_epoch": "2025-12-16T06:08:42.790848",
        "meta_mean_motion": 14.03573579,
        "meta_eccentricity": 0.01241319,
        "meta_inclination": 98.7147,
        "meta_ra_of_asc_node": 342.8405,
        "meta_arg_of_pericenter": 45.4254,
        "meta_mean_anomaly": 315.6966,
        "meta_ephemeris_type": 0,
        "meta_classification_type": "U",
        "meta_norad_cat_id": 37036,
        "meta_element_set_no": 999,
        "meta_rev_at_epoch": 63797,
        "meta_bstar": 0.00035913952,
        "meta_mean_motion_dot": 5.62e-06,
        "meta_mean_motion_ddot": 0,
        "tle_line1": "1 37036U 99025EDU 25350.25605082  .00000562  00000+0  35914-3 0  9994",
        "tle_line2": "2 37036  98.7147 342.8405 0124131  45.4254 315.6966 14.03573579637971"
      },
      "geometry": {
        "type": "Point",
        "coordinates": [
          -1.2994909383582858,
          -51.59238902575625
        ]
      }
    },
    {
      "type": "Feature",
      "properties": {
        "norad_id": 37044,
        "name": "FENGYUN 1C DEB",
        "group": "fengyun-1c-debris",
        "lat": -7.315687170723483,
        "lon": -80.42569582423948,
        "alt_km": 740.0669655386846,
        "timestamp": "2025-12-21T03:56:51.123877+00:00",
        "meta_object_name": "FENGYUN 1C DEB",
        "meta_object_id": "1999-025EEC",
        "meta_epoch": "2025-12-17T00:58:56.109216",
        "meta_mean_motion": 13.7088459,
        "meta_eccentricity": 0.05081309,
        "meta_inclination": 98.9658,
        "meta_ra_of_asc_node": 96.8685,
        "meta_arg_of_pericenter": 149.9849,
        "meta_mean_anomaly": 213.1489,
        "meta_ephemeris_type": 0,
        "meta_classification_type": "U",
        "meta_norad_cat_id": 37044,
        "meta_element_set_no": 999,
        "meta_rev_at_epoch": 83917,
        "meta_bstar": 0.0024723878,
        "meta_mean_motion_dot": 5.519e-05,
        "meta_mean_motion_ddot": 0,
        "tle_line1": "1 37044U 99025EEC 25351.04092719  .00005519  00000+0  24724-2 0  9991",
        "tle_line2": "2 37044  98.9658  96.8685 0508130 149.9849 213.1489 13.70884590839179"
      },
      "geometry": {
        "type": "Point",
        "coordinates": [
          -80.42569582423948,
          -7.315687170723483
        ]
      }
    },
    {
      "type": "Feature",
      "properties": {
        "norad_id": 37046,
        "name": "FENGYUN 1C DEB",
        "group": "fengyun-1c-debris",
        "lat": 55.70226109251169,
        "lon": -3.5381048110247706,
        "alt_km": 828.0883872363329,
        "timestamp": "2025-12-21T03:56:51.123886+00:00",
        "meta_object_name": "FENGYUN 1C DEB",
        "meta_object_id": "1999-025EEE",
        "meta_epoch": "2025-12-20T07:27:28.729152",
        "meta_mean_motion": 14.24864867,
        "meta_eccentricity": 0.00488593,
        "meta_inclination": 98.5442,
        "meta_ra_of_asc_node": 8.3637,
        "meta_arg_of_pericenter": 284.7965,
        "meta_mean_anomaly": 74.7805,
        "meta_ephemeris_type": 0,
        "meta_classification_type": "U",
        "meta_norad_cat_id": 37046,
        "meta_element_set_no": 999,
        "meta_rev_at_epoch": 64289,
        "meta_bstar": 0.00051658795,
        "meta_mean_motion_dot": 1.178e-05,
        "meta_mean_motion_ddot": 0,
        "tle_line1": "1 37046U 99025EEE 25354.31074918  .00001178  00000+0  51659-3 0  9992",
        "tle_line2": "2 37046  98.5442   8.3637 0048859 284.7965  74.7805 14.24864867642896"
      },
      "geometry": {
        "type": "Point",
        "coordinates": [
          -3.5381048110247706,
          55.70226109251169
        ]
      }
    },
    {
      "type": "Feature",
      "properties": {
        "norad_id": 37048,
        "name": "FENGYUN 1C DEB",
        "group": "fengyun-1c-debris",
        "lat": -72.74930368509929,
        "lon": 5.526420417740597,
        "alt_km": 1136.3857183869932,
        "timestamp": "2025-12-21T03:56:51.123895+00:00",
        "meta_object_name": "FENGYUN 1C DEB",
        "meta_object_id": "1999-025EEG",
        "meta_epoch": "2025-12-20T11:28:01.182144",
        "meta_mean_motion": 13.65138161,
        "meta_eccentricity": 0.02535701,
        "meta_inclination": 98.8864,
        "meta_ra_of_asc_node": 215.1499,
        "meta_arg_of_pericenter": 129.0844,
        "meta_mean_anomaly": 350.7839,
        "meta_ephemeris_type": 0,
        "meta_classification_type": "U",
        "meta_norad_cat_id": 37048,
        "meta_element_set_no": 999,
        "meta_rev_at_epoch": 62275,
        "meta_bstar": 0.00018884192,
        "meta_mean_motion_dot": 1.54e-06,
        "meta_mean_motion_ddot": 0,
        "tle_line1": "1 37048U 99025EEG 25354.47779146  .00000154  00000+0  18884-3 0  9992",
        "tle_line2": "2 37048  98.8864 215.1499 0253570 129.0844 350.7839 13.65138161622750"
      },
      "geometry": {
        "type": "Point",
        "coordinates": [
          5.526420417740597,
          -72.74930368509929
        ]
      }
    },
    {
      "type": "Feature",
      "properties": {
        "norad_id": 37054,
        "name": "FENGYUN 1C DEB",
        "group": "fengyun-1c-debris",
        "lat": 67.06091116405564,
        "lon": 178.15803115062423,
        "alt_km": 757.4083401775924,
        "timestamp": "2025-12-21T03:56:51.123904+00:00",
        "meta_object_name": "FENGYUN 1C DEB",
        "meta_object_id": "1999-025EEN",
        "meta_epoch": "2025-12-18T04:22:47.839296",
        "meta_mean_motion": 14.19457855,
        "meta_eccentricity": 0.01012295,
        "meta_inclination": 98.5505,
        "meta_ra_of_asc_node": 334.4558,
        "meta_arg_of_pericenter": 89.7023,
        "meta_mean_anomaly": 271.5753,
        "meta_ephemeris_type": 0,
        "meta_classification_type": "U",
        "meta_norad_cat_id": 37054,
        "meta_element_set_no": 999,
        "meta_rev_at_epoch": 64506,
        "meta_bstar": 0.00022919283,
        "meta_mean_motion_dot": 4.67e-06,
        "meta_mean_motion_ddot": 0,
        "tle_line1": "1 37054U 99025EEN 25352.18249814  .00000467  00000+0  22919-3 0  9990",
        "tle_line2": "2 37054  98.5505 334.4558 0101229  89.7023 271.5753 14.19457855645069"
      },
      "geometry": {
        "type": "Point",
        "coordinates": [
          178.15803115062423,
          67.06091116405564
        ]
      }
    }
  ]
}